STARLINK-6319           
1 56532U 23065AF  23313.92905039  .00008692  00000+0  65750-3 0  9996
2 56532  43.0012 140.5146 0001218 273.6136  86.4567 15.02547451 28790
STARLINK-6310           
1 56533U 23065AG  23314.51070750  .00003434  00000+0  26914-3 0  9994
2 56533  43.0032 137.1379 0001286 269.5518  90.5177 15.02540645 28887
STARLINK-6308           
1 56534U 23065AH  23313.92572323  .00026924  00000+0  20065-2 0  9991
2 56534  43.0025 140.4884 0000817 233.6789 126.3978 15.02423287 28798
STARLINK-6309           
1 56535U 23065AJ  23313.97837454  .00007408  00000+0  56253-3 0  9991
2 56535  43.0006 166.0550 0001450 263.5670  96.5008 15.02561135 28503
STARLINK-6312           
1 56536U 23065AK  23314.31187067  .00001690  00000+0  14007-3 0  9997
2 56536  43.0014 164.2592 0001254 273.0293  87.0406 15.02549983 28557
STARLINK-6311           
1 56537U 23065AL  23314.30743165  .00001400  00000+0  11865-3 0  9992
2 56537  43.0023 164.2252 0001262 271.4827  88.5871 15.02555475 28550
STARLINK-6314           
1 56538U 23065AM  23314.20927781  .00001387  00000+0  11772-3 0  9991
2 56538  43.0026 138.3158 0001152 281.0715  78.9998 15.02538407 28843
STARLINK-6135           
1 56539U 23065AN  23314.30410335  .00001437  00000+0  12137-3 0  9997
2 56539  43.0024 164.2006 0000955 279.4405  80.6330 15.02553379 28552
STARLINK-6136           
1 56540U 23065AP  23314.04928443  .00007576  00000+0  57508-3 0  9995
2 56540  43.0019 165.7292 0001370 251.5293 108.5400 15.02550145 28511
STARLINK-6249           
1 56541U 23065AQ  23314.09578883  .00009510  00000+0  71750-3 0  9995
2 56541  43.0021 165.2165 0001222 273.7794  86.2909 15.02567464 28526
STARLINK-6266           
1 56542U 23065AR  23314.30077506  .00002550  00000+0  20361-3 0  9995
2 56542  43.0002 164.1759 0000325 316.1603  43.9214 15.02557443 28555
STARLINK-6228           
1 56543U 23065AS  23314.28855563  .00002773  00000+0  22013-3 0  9993
2 56543  43.0014 164.0811 0001800 269.8652  90.1984 15.02561797 28559
STARLINK-6226           
1 56544U 23065AT  23314.09800801  .00008935  00000+0  67542-3 0  9990
2 56544  43.0022 165.2334 0001422 273.5036  86.5644 15.02549282 28524
STARLINK-6086           
1 56545U 23065AU  23314.28412302 -.00002341  00000+0 -15821-3 0  9997
2 56545  43.0021 164.0483 0001016 279.3588  80.7140 15.02550365 28555
STARLINK-6187           
1 56546U 23065AV  23314.55780558  .00001575  00000+0  13165-3 0  9994
2 56546  43.0017 162.6618 0001289 271.7085  88.3609 15.02540698 28591
STARLINK-6291           
1 56547U 23065AW  23314.27746295  .00003984  00000+0  30975-3 0  9998
2 56547  43.0030 163.9992 0001369 271.6356  88.4330 15.02548783 28556
STARLINK-6244           
1 56548U 23065AX  23314.55336306  .00005214  00000+0  40070-3 0  9993
2 56548  43.0014 162.6297 0001011 269.3649  90.7077 15.02544503 28590
STARLINK-6263           
1 56549U 23065AY  23314.27191452  .00002616  00000+0  20862-3 0  9994
2 56549  43.0018 163.9563 0001223 272.5710  87.4993 15.02544113 28558
STARLINK-6255           
1 56550U 23065AZ  23314.28078960 -.00001825  00000+0 -12001-3 0  9994
2 56550  43.0036 164.0243 0001514 268.7502  91.3167 15.02554537 28554
STARLINK-6199           
1 56551U 23065BA  23314.06803963  .00007741  00000+0  58704-3 0  9991
2 56551  43.0026 165.0048 0001450 270.4644  89.6032 15.02564427 28521
STARLINK-5802           
1 56552U 23065BB  23314.27413018  .00001961  00000+0  16011-3 0  9996
2 56552  43.0025 163.9742 0001327 277.5082  82.5610 15.02549466 28559
STARLINK-6074           
1 56553U 23065BC  23314.06470861  .00008497  00000+0  64315-3 0  9994
2 56553  43.0026 164.9814 0001432 273.5713  86.4965 15.02545896 28522
STARLINK-6295           
1 56554U 23065BD  23314.06914957  .00010586  00000+0  79697-3 0  9995
2 56554  43.0025 165.0160 0001359 268.4988  91.5699 15.02561639 28527
STARLINK-6252           
1 56555U 23065BE  23313.99159257  .00017410  00000+0  13011-2 0  9991
2 56555  43.0028 165.2928 0000500 185.5533 174.5304 15.02523654 28516
STARLINK-5302           
1 56556U 23065BF  23314.06138164  .00008930  00000+0  67495-3 0  9998
2 56556  43.0027 164.9567 0001163 280.7305  79.3407 15.02556392 28524
STARLINK-6265           
1 56557U 23065BG  23314.32063114  .00004480  00000+0  34626-3 0  9996
2 56557  43.0020 163.4630 0001497 307.5812  52.4894 15.02561019 28562
STARLINK-6286           
1 56558U 23065BH  23314.58432141  .00017608  00000+0  13152-2 0  9991
2 56558  43.0019 161.9991 0001247 270.7281  89.3418 15.02537594 28605
STARLINK-30122          
1 56688U 23067A   23314.43817964  .00007146  00000+0  54339-3 0  9990
2 56688  43.0040 215.0080 0001242 259.8335 100.2367 15.02545625 27829
STARLINK-30129          
1 56689U 23067B   23314.22876460  .00021610  00000+0  16080-2 0  9996
2 56689  43.0012 216.0272 0001286 263.5370  96.5326 15.02578924 27721
STARLINK-30124          
1 56690U 23067C   23314.42486043  .00016494  00000+0  12336-2 0  9998
2 56690  43.0034 214.9247 0000967 288.2805  71.7932 15.02524090 27754
STARLINK-30087          
1 56691U 23067D   23314.12037637  .00051901  00000+0  27876-2 0  9994
2 56691  43.0006 211.8802 0010980 223.2190 136.7795 15.14115341 27767
STARLINK-30036          
1 56692U 23067E   23314.41820236  .00018836  00000+0  14060-2 0  9993
2 56692  43.0035 214.8919 0001143 251.6307 108.4411 15.02527763 26625
STARLINK-30067          
1 56693U 23067F   23314.41154053  .00024885  00000+0  18509-2 0  9994
2 56693  43.0023 214.8412 0000811 314.6730  45.4046 15.02532519 27756
STARLINK-30126          
1 56694U 23067G   23314.41486933  .00002418  00000+0  19401-3 0  9991
2 56694  43.0019 214.8679 0001326 266.9820  93.0871 15.02541819 27756
STARLINK-30121          
1 56695U 23067H   23314.14229030  .00005236  00000+0  40217-3 0  9995
2 56695  43.0010 216.2493 0001297 265.8667  94.2027 15.02554754 27716
STARLINK-30130          
1 56697U 23067K   23314.44805574  .00003656  00000+0  28557-3 0  9990
2 56697  43.0018 214.2534 0000947 278.5837  81.4898 15.02536774 27504
STARLINK-30068          
1 56698U 23067L   23314.38848761 -.00000919  00000+0 -52972-4 0  9999
2 56698  43.0015 201.6770 0001205 267.5504  92.5200 15.02549086 27646
STARLINK-30127          
1 56699U 23067M   23314.13896592  .00035740  00000+0  26448-2 0  9993
2 56699  42.9988 216.2417 0002256 254.0958 105.9636 15.02570620 27713
STARLINK-30053          
1 56700U 23067N   23314.13563969  .00030767  00000+0  22811-2 0  9999
2 56700  43.0013 216.2135 0001503 252.3930 107.6749 15.02561243 27714
STARLINK-30125          
1 56701U 23067P   23314.13231061  .00026920  00000+0  19993-2 0  9998
2 56701  43.0014 216.1880 0001279 260.7884  99.2814 15.02553119 27715
STARLINK-30117          
1 56702U 23067Q   23314.16893264  .00024743  00000+0  18395-2 0  9997
2 56702  43.0016 216.3971 0001164 252.7587 107.3128 15.02551701 27719
STARLINK-30132          
1 56703U 23067R   23314.46137592  .00014197  00000+0  10640-2 0  9993
2 56703  43.0018 214.3558 0001126 258.6882 101.3834 15.02531594 27763
STARLINK-30066          
1 56704U 23067S   23314.44140043  .00006960  00000+0  52988-3 0  9998
2 56704  42.9999 214.1986 0001080 261.5617  98.5103 15.02526973 27762
STARLINK-30080          
1 56705U 23067T   23314.38516382  .00008444  00000+0  63909-3 0  9999
2 56705  43.0076 201.7111 0000884 312.7947  47.2821 15.02556602 27905
STARLINK-30079          
1 56706U 23067U   23314.45471404  .00031608  00000+0  23461-2 0  9999
2 56706  43.0017 214.3047 0001166 263.1926  96.8784 15.02508257 27764
STARLINK-30070          
1 56707U 23067V   23314.12565207  .00016460  00000+0  12302-2 0  9990
2 56707  43.0014 216.1376 0001545 249.0897 110.9780 15.02550489 27711
STARLINK-30071          
1 56708U 23067W   23314.44472270  .00001473  00000+0  12404-3 0  9995
2 56708  43.0022 214.2289 0001189 265.8526  94.2180 15.02541839 27764
STARLINK-30085          
1 56709U 23067X   23314.45138763  .00013746  00000+0  10307-2 0  9998
2 56709  43.0011 214.2796 0000965 279.8235  80.2498 15.02533231 27505
STARLINK-6197           
1 56767U 23078A   23314.48692362 -.00001042  00000+0 -79521-4 0  9990
2 56767  69.9995 348.1757 0003044 264.4074  95.6738 14.98334895 24832
STARLINK-6198           
1 56768U 23078B   23314.58334491 -.00957554  00000+0 -97468-2 0  9994
2 56768  69.9996 314.1620 0003252 272.9968 285.1344 15.67353007  6048
STARLINK-5978           
1 56769U 23078C   23314.47856440 -.00004998  00000+0 -41111-3 0  9996
2 56769  69.9999 348.1455 0002351 258.4071 101.6824 14.98359005 24837
STARLINK-6342           
1 56770U 23078D   23314.48275084 -.00001032  00000+0 -78734-4 0  9996
2 56770  69.9999 348.1613 0002451 269.9819  90.1059 14.98334820 24833
STARLINK-6339           
1 56771U 23078E   23314.41965146 -.00000011  00000+0  16731-5 0  9990
2 56771  69.9992 314.6140 0003176 258.5281 101.5558 15.69929695 25653
STARLINK-6275           
1 56772U 23078F   23314.54115746 -.00006488  00000+0 -53606-3 0  9993
2 56772  70.0005 347.9639 0002261 274.5933  85.4968 14.98357883 24840
STARLINK-6296           
1 56773U 23078G   23314.41956072  .00002606  00000+0  23460-4 0  9997
2 56773  70.0000 314.6137 0002888 254.9969 105.0908 15.69900570 25655
STARLINK-6190           
1 56774U 23078H   23314.52880456 -.00001001  00000+0 -76096-4 0  9995
2 56774  69.9997 347.9199 0002663 276.4816  83.6040 14.98335439 24841
STARLINK-6292           
1 56775U 23078J   23314.41902775 -.00000903  00000+0 -57439-5 0  9994
2 56775  69.9990 314.6093 0003195 278.5141  81.5692 15.69913739 25658
STARLINK-6274           
1 56776U 23078K   23314.42070848 -.00128741  00000+0 -11379-2 0  9994
2 56776  69.9994 314.6179 0002202 233.0784 127.0210 15.68784008 25651
STARLINK-5582           
1 56777U 23078L   23314.58334491 -.00012935  00000+0 -10782-2 0  9993
2 56777  70.0002 328.0768 0002870 272.8698 225.8915 14.98331312  5806
